GLOBALSTAR M063         
1 26081U 00008A   24159.01952200 -.00000013  00000+0  10146-2 0  9993
2 26081  51.9978  19.6161 0004201 324.5174 184.4394 11.86156243113123
GLOBALSTAR M062         
1 26082U 00008B   24158.98681255 -.00000085  00000+0  96616-4 0  9995
2 26082  51.9833 119.1067 0007388  30.4769  79.5866 12.43437613112446
GLOBALSTAR M060         
1 26083U 00008C   24159.02557574  .00000042  00000+0  13201-2 0  9997
2 26083  52.0047  25.9261 0004061  79.3166  68.3756 12.17635143106833
GLOBALSTAR M064         
1 26084U 00008D   24158.97328384 -.00000105  00000+0 -30370-3 0  9995
2 26084  52.0011 122.9886 0001653  43.7888 316.3076 11.88519800122596
GLOBALSTAR M065         
1 31571U 07020A   24158.64136346 -.00000105  00000+0 -74959-5 0  9995
2 31571  51.9906 289.2732 0010151 192.8259 180.2276 12.61971313785994
GLOBALSTAR M069         
1 31573U 07020C   24158.55896976 -.00000047  00000+0  31808-3 0  9997
2 31573  51.9946 245.3645 0000703 173.0655 199.8069 12.62274800787119
GLOBALSTAR M072         
1 31574U 07020D   24158.90099198 -.00000075  00000+0  15998-3 0  9991
2 31574  52.0102 340.2507 0001092 105.5798  41.8516 12.62272846785588
GLOBALSTAR M071         
1 31576U 07020F   24158.50633845 -.00000037  00000+0  37065-3 0  9999
2 31576  52.0062 250.6826 0000424 121.4657 251.3658 12.62267737448294
